start=new Date('2023-02-25T00:00:00.000Z').valueOf();
sats=[{"REF_FRAME":"TEME","MEAN_MOTION_DDOT":"0.0000000000000","TIME_SYSTEM":"UTC","SITE":"AFETR","EPOCH":"2023-02-24T18:42:31.557024","COUNTRY_CODE":"US","CENTER_NAME":"EARTH","OBJECT_ID":"2021-009BA","MEAN_ANOMALY":"255.6853","OBJECT_TYPE":"PAYLOAD","RCS_SIZE":"LARGE","MEAN_ELEMENT_THEORY":"SGP4","APOAPSIS":"548.207","EPHEMERIS_TYPE":"0","REV_AT_EPOCH":"11337","MEAN_MOTION_DOT":"0.00012528","MEAN_MOTION":"15.06402583","INCLINATION":"53.0538","PERIAPSIS":"546.204","LAUNCH_DATE":"2021-02-04","DECAY_DATE":null,"CLASSIFICATION_TYPE":"U","NORAD_CAT_ID":"47596","OBJECT_NAME":"STARLINK-2001","ECCENTRICITY":"0.00014460","GP_ID":"226775374","RA_OF_ASC_NODE":"339.7136","FILE":"3835059","ELEMENT_SET_NO":"999","ARG_OF_PERICENTER":"104.4296","SEMIMAJOR_AXIS":"6925.341","TLE_LINE1":"1 47596U 21009BA  23055.77953191  .00012528  00000-0  85841-3 0  9997","PERIOD":"95.592","BSTAR":"0.00085841000000","TLE_LINE2":"2 47596  53.0538 339.7136 0001446 104.4296 255.6853 15.06402583113373"},{"PERIAPSIS":"546.248","INCLINATION":"53.0524","LAUNCH_DATE":"2021-02-04","MEAN_MOTION_DOT":"0.00021045","MEAN_MOTION":"15.06384132","APOAPSIS":"548.277","EPHEMERIS_TYPE":"0","REV_AT_EPOCH":"11330","RCS_SIZE":"LARGE","MEAN_ELEMENT_THEORY":"SGP4","CLASSIFICATION_TYPE":"U","NORAD_CAT_ID":"47597","DECAY_DATE":null,"ELEMENT_SET_NO":"999","ARG_OF_PERICENTER":"114.4817","FILE":"3832867","RA_OF_ASC_NODE":"341.8359","OBJECT_NAME":"STARLINK-2002","GP_ID":"226704711","ECCENTRICITY":"0.00014650","TLE_LINE2":"2 47597  53.0524 341.8359 0001465 114.4817 245.6325 15.06384132113306","BSTAR":"0.00142810000000","PERIOD":"95.593","SEMIMAJOR_AXIS":"6925.397","TLE_LINE1":"1 47597U 21009BB  23055.30773687  .00021045  00000-0  14281-2 0  9990","TIME_SYSTEM":"UTC","REF_FRAME":"TEME","MEAN_MOTION_DDOT":"0.0000000000000","EPOCH":"2023-02-24T07:23:08.465568","COUNTRY_CODE":"US","SITE":"AFETR","OBJECT_ID":"2021-009BB","CENTER_NAME":"EARTH","OBJECT_TYPE":"PAYLOAD","MEAN_ANOMALY":"245.6325"},{"MEAN_ANOMALY":"227.1315","OBJECT_TYPE":"PAYLOAD","CENTER_NAME":"EARTH","OBJECT_ID":"2021-009BC","SITE":"AFETR","COUNTRY_CODE":"US","EPOCH":"2023-02-24T20:22:02.595360","REF_FRAME":"TEME","MEAN_MOTION_DDOT":"0.0000000000000","TIME_SYSTEM":"UTC","TLE_LINE1":"1 47598U 21009BC  23055.84864115  .00018555  00000-0  12602-2 0  9994","SEMIMAJOR_AXIS":"6925.253","PERIOD":"95.590","BSTAR":"0.00126020000000","TLE_LINE2":"2 47598  53.0532 309.4021 0001283 132.9781 227.1315 15.06431033113818","ECCENTRICITY":"0.00012830","GP_ID":"226776373","OBJECT_NAME":"STARLINK-2003","RA_OF_ASC_NODE":"309.4021","FILE":"3835059","ARG_OF_PERICENTER":"132.9781","ELEMENT_SET_NO":"999","DECAY_DATE":null,"NORAD_CAT_ID":"47598","CLASSIFICATION_TYPE":"U","MEAN_ELEMENT_THEORY":"SGP4","RCS_SIZE":"LARGE","REV_AT_EPOCH":"11381","EPHEMERIS_TYPE":"0","APOAPSIS":"548.007","MEAN_MOTION":"15.06431033","MEAN_MOTION_DOT":"0.00018555","LAUNCH_DATE":"2021-02-04","PERIAPSIS":"546.230","INCLINATION":"53.0532"},{"OBJECT_TYPE":"PAYLOAD","MEAN_ANOMALY":"251.3554","OBJECT_ID":"2021-009BD","CENTER_NAME":"EARTH","EPOCH":"2023-02-24T20:07:25.887648","COUNTRY_CODE":"US","SITE":"AFETR","TIME_SYSTEM":"UTC","MEAN_MOTION_DDOT":"0.0000000000000","REF_FRAME":"TEME","TLE_LINE2":"2 47599  53.0529 299.4447 0000798 108.7521 251.3554 15.06418490113948","BSTAR":"0.00121290000000","PERIOD":"95.591","SEMIMAJOR_AXIS":"6925.292","TLE_LINE1":"1 47599U 21009BD  23055.83849407  .00017840  00000-0  12129-2 0  9991","ARG_OF_PERICENTER":"108.7521","ELEMENT_SET_NO":"999","FILE":"3835059","RA_OF_ASC_NODE":"299.4447","OBJECT_NAME":"STARLINK-2004","ECCENTRICITY":"0.00007980","GP_ID":"226777122","CLASSIFICATION_TYPE":"U","NORAD_CAT_ID":"47599","DECAY_DATE":null,"PERIAPSIS":"546.604","INCLINATION":"53.0529","LAUNCH_DATE":"2021-02-04","MEAN_MOTION_DOT":"0.00017840","MEAN_MOTION":"15.06418490","APOAPSIS":"547.710","EPHEMERIS_TYPE":"0","REV_AT_EPOCH":"11394","RCS_SIZE":"LARGE","MEAN_ELEMENT_THEORY":"SGP4"},{"ELEMENT_SET_NO":"999","ARG_OF_PERICENTER":"67.9082","FILE":"3835059","RA_OF_ASC_NODE":"299.0027","ECCENTRICITY":"0.00009040","GP_ID":"226775874","OBJECT_NAME":"STARLINK-2005","BSTAR":"0.00092992000000","TLE_LINE2":"2 47600  53.0540 299.0027 0000904  67.9082 292.2003 15.06418863113960","PERIOD":"95.591","TLE_LINE1":"1 47600U 21009BE  23055.93064334  .00013604  00000-0  92992-3 0  9994","SEMIMAJOR_AXIS":"6925.291","LAUNCH_DATE":"2021-02-04","PERIAPSIS":"546.530","INCLINATION":"53.0540","MEAN_MOTION":"15.06418863","MEAN_MOTION_DOT":"0.00013604","REV_AT_EPOCH":"11396","EPHEMERIS_TYPE":"0","APOAPSIS":"547.782","RCS_SIZE":"LARGE","MEAN_ELEMENT_THEORY":"SGP4","NORAD_CAT_ID":"47600","CLASSIFICATION_TYPE":"U","DECAY_DATE":null,"OBJECT_ID":"2021-009BE","CENTER_NAME":"EARTH","OBJECT_TYPE":"PAYLOAD","MEAN_ANOMALY":"292.2003","TIME_SYSTEM":"UTC","MEAN_MOTION_DDOT":"0.0000000000000","REF_FRAME":"TEME","COUNTRY_CODE":"US","EPOCH":"2023-02-24T22:20:07.584576","SITE":"AFETR"},{"NORAD_CAT_ID":"47601","CLASSIFICATION_TYPE":"U","DECAY_DATE":null,"LAUNCH_DATE":"2021-02-04","PERIAPSIS":"546.332","INCLINATION":"53.0527","MEAN_MOTION":"15.06422610","MEAN_MOTION_DOT":"0.00017942","REV_AT_EPOCH":"11394","EPHEMERIS_TYPE":"0","APOAPSIS":"547.957","MEAN_ELEMENT_THEORY":"SGP4","RCS_SIZE":"LARGE","TLE_LINE2":"2 47601  53.0527 299.4230 0001173 107.1336 252.9782 15.06422610113944","BSTAR":"0.00121960000000","PERIOD":"95.591","TLE_LINE1":"1 47601U 21009BF  23055.84217962  .00017942  00000-0  12196-2 0  9998","SEMIMAJOR_AXIS":"6925.279","ELEMENT_SET_NO":"999","ARG_OF_PERICENTER":"107.1336","FILE":"3835059","RA_OF_ASC_NODE":"299.4230","GP_ID":"226776123","ECCENTRICITY":"0.00011730","OBJECT_NAME":"STARLINK-2006","COUNTRY_CODE":"US","EPOCH":"2023-02-24T20:12:44.319168","SITE":"AFETR","TIME_SYSTEM":"UTC","MEAN_MOTION_DDOT":"0.0000000000000","REF_FRAME":"TEME","OBJECT_TYPE":"PAYLOAD","MEAN_ANOMALY":"252.9782","OBJECT_ID":"2021-009BF","CENTER_NAME":"EARTH"},{"RA_OF_ASC_NODE":"309.3372","GP_ID":"226776873","ECCENTRICITY":"0.00011530","OBJECT_NAME":"STARLINK-2007","ARG_OF_PERICENTER":"99.4900","ELEMENT_SET_NO":"999","FILE":"3835059","PERIOD":"95.592","TLE_LINE1":"1 47602U 21009BG  23055.86338490  .00011196  00000-0  76937-3 0  9990","SEMIMAJOR_AXIS":"6925.355","TLE_LINE2":"2 47602  53.0528 309.3372 0001153  99.4900 260.6220 15.06398029113806","BSTAR":"0.00076937000000","EPHEMERIS_TYPE":"0","REV_AT_EPOCH":"11380","APOAPSIS":"548.018","RCS_SIZE":"LARGE","MEAN_ELEMENT_THEORY":"SGP4","LAUNCH_DATE":"2021-02-04","INCLINATION":"53.0528","PERIAPSIS":"546.421","MEAN_MOTION":"15.06398029","MEAN_MOTION_DOT":"0.00011196","DECAY_DATE":null,"NORAD_CAT_ID":"47602","CLASSIFICATION_TYPE":"U","OBJECT_ID":"2021-009BG","CENTER_NAME":"EARTH","OBJECT_TYPE":"PAYLOAD","MEAN_ANOMALY":"260.6220","TIME_SYSTEM":"UTC","MEAN_MOTION_DDOT":"0.0000000000000","REF_FRAME":"TEME","SITE":"AFETR","COUNTRY_CODE":"US","EPOCH":"2023-02-24T20:43:16.455360"},{"TLE_LINE1":"1 47603U 21009BH  23055.21189881  .00030386  00000-0  20507-2 0  9991","SEMIMAJOR_AXIS":"6925.386","PERIOD":"95.593","TLE_LINE2":"2 47603  53.0548 342.2622 0001572  68.2651 291.8505 15.06387747113284","BSTAR":"0.00205070000000","GP_ID":"226703710","ECCENTRICITY":"0.00015720","OBJECT_NAME":"STARLINK-2008","RA_OF_ASC_NODE":"342.2622","FILE":"3832867","ARG_OF_PERICENTER":"68.2651","ELEMENT_SET_NO":"999","DECAY_DATE":null,"NORAD_CAT_ID":"47603","CLASSIFICATION_TYPE":"U","MEAN_ELEMENT_THEORY":"SGP4","RCS_SIZE":"LARGE","REV_AT_EPOCH":"11328","EPHEMERIS_TYPE":"0","APOAPSIS":"548.340","MEAN_MOTION":"15.06387747","MEAN_MOTION_DOT":"0.00030386","LAUNCH_DATE":"2021-02-04","PERIAPSIS":"546.162","INCLINATION":"53.0548","MEAN_ANOMALY":"291.8505","OBJECT_TYPE":"PAYLOAD","CENTER_NAME":"EARTH","OBJECT_ID":"2021-009BH","SITE":"AFETR","COUNTRY_CODE":"US","EPOCH":"2023-02-24T05:05:08.057184","REF_FRAME":"TEME","MEAN_MOTION_DDOT":"0.0000000000000","TIME_SYSTEM":"UTC"},{"CLASSIFICATION_TYPE":"U","NORAD_CAT_ID":"47604","DECAY_DATE":null,"MEAN_MOTION_DOT":"0.00016432","MEAN_MOTION":"15.06431900","PERIAPSIS":"546.675","INCLINATION":"53.0526","LAUNCH_DATE":"2021-02-04","MEAN_ELEMENT_THEORY":"SGP4","RCS_SIZE":"LARGE","APOAPSIS":"547.557","REV_AT_EPOCH":"11443","EPHEMERIS_TYPE":"0","TLE_LINE2":"2 47604  53.0526 308.7082 0000637  97.2028 262.9034 15.06431900114434","BSTAR":"0.00111850000000","SEMIMAJOR_AXIS":"6925.251","TLE_LINE1":"1 47604U 21009BJ  23056.00343398  .00016432  00000-0  11185-2 0  9993","PERIOD":"95.590","FILE":"3834470","ELEMENT_SET_NO":"999","ARG_OF_PERICENTER":"97.2028","OBJECT_NAME":"STARLINK-2021","GP_ID":"226740677","ECCENTRICITY":"0.00006370","RA_OF_ASC_NODE":"308.7082","EPOCH":"2023-02-25T00:04:56.695872","COUNTRY_CODE":"US","SITE":"AFETR","REF_FRAME":"TEME","MEAN_MOTION_DDOT":"0.0000000000000","TIME_SYSTEM":"UTC","MEAN_ANOMALY":"262.9034","OBJECT_TYPE":"PAYLOAD","CENTER_NAME":"EARTH","OBJECT_ID":"2021-009BJ"},{"DECAY_DATE":null,"NORAD_CAT_ID":"47606","CLASSIFICATION_TYPE":"U","EPHEMERIS_TYPE":"0","REV_AT_EPOCH":"11381","APOAPSIS":"547.936","MEAN_ELEMENT_THEORY":"SGP4","RCS_SIZE":"LARGE","LAUNCH_DATE":"2021-02-04","INCLINATION":"53.0532","PERIAPSIS":"546.388","MEAN_MOTION":"15.06416768","MEAN_MOTION_DOT":"0.00014708","PERIOD":"95.591","TLE_LINE1":"1 47606U 21009BL  23055.87443177  .00014708  00000-0  10038-2 0  9995","SEMIMAJOR_AXIS":"6925.297","TLE_LINE2":"2 47606  53.0532 309.2856 0001118  73.9061 286.2051 15.06416768113815","BSTAR":"0.00100380000000","RA_OF_ASC_NODE":"309.2856","ECCENTRICITY":"0.00011180","GP_ID":"226775624","OBJECT_NAME":"STARLINK-2024","ELEMENT_SET_NO":"999","ARG_OF_PERICENTER":"73.9061","FILE":"3835059","SITE":"AFETR","COUNTRY_CODE":"US","EPOCH":"2023-02-24T20:59:10.904928","TIME_SYSTEM":"UTC","REF_FRAME":"TEME","MEAN_MOTION_DDOT":"0.0000000000000","OBJECT_TYPE":"PAYLOAD","MEAN_ANOMALY":"286.2051","OBJECT_ID":"2021-009BL","CENTER_NAME":"EARTH"}];
